OBJECT_NAME,OBJECT_ID,EPOCH,MEAN_MOTION,ECCENTRICITY,INCLINATION,RA_OF_ASC_NODE,ARG_OF_PERICENTER,MEAN_ANOMALY,EPHEMERIS_TYPE,CLASSIFICATION_TYPE,NORAD_CAT_ID,ELEMENT_SET_NO,REV_AT_EPOCH,BSTAR,MEAN_MOTION_DOT,MEAN_MOTION_DDOT
JILIN-1 GAOFEN 3A,2019-032C,2026-06-11T02:07:26.325696,15.32500292,.00065925,44.9764,30.4979,265.9228,94.0903,0,U,44312,999,38690,.35204711E-3,.10975E-3,0
WT 1B,2019-032G,2026-06-11T05:55:31.665792,15.27071297,.00095454,44.9725,93.3600,218.5153,141.5049,0,U,44316,999,38617,.38984645E-3,.10278E-3,0
PROX-1,2019-036A,2026-06-11T07:11:59.300160,14.90469737,.00053762,23.9927,153.5771,327.2925,32.7241,0,U,44339,999,37259,.10182471E-2,.10469E-3,0
NPSAT1,2019-036B,2026-06-10T23:01:13.609920,14.74527015,.00077821,23.9994,258.3232,135.8627,224.2491,0,U,44340,999,37157,.63553857E-3,.4571E-4,0
FORMOSAT 7-3,2019-036E,2026-06-10T20:08:27.134016,15.09759770,.00007483,23.9983,222.2335,162.6468,197.4061,0,U,44343,999,38228,.20705068E-3,.3776E-4,0
FORMOSAT 7-1,2019-036L,2026-06-10T10:41:56.854752,14.96476311,.00010151,23.9983,77.8387,98.3037,261.7579,0,U,44349,999,38364,.17804491E-3,.2374E-4,0
FORMOSAT 7-4,2019-036M,2026-06-10T14:26:18.220128,14.96470956,.00014622,23.9970,138.8959,110.3037,249.7621,0,U,44350,999,38308,.16931962E-3,.2272E-4,0
FORMOSAT 7-2,2019-036N,2026-06-10T18:10:31.196064,14.96473915,.00010217,23.9969,192.1641,105.9152,254.1461,0,U,44351,999,38262,.15417489E-3,.2096E-4,0
FORMOSAT 7-6,2019-036Q,2026-06-10T21:22:16.881888,14.96483548,.00012669,23.9992,12.0792,36.7502,323.3085,0,U,44353,999,38087,.18509426E-3,.2456E-4,0
FORMOSAT 7-5,2019-036V,2026-06-10T17:37:32.396736,14.96490578,.00007115,23.9996,311.8841,88.5872,271.4710,0,U,44358,999,38138,.1895407E-3,.2508E-4,0
METEOR-M2 2,2019-038A,2026-06-11T06:34:11.631936,14.24365257,.0002234,98.9144,149.4719,57.5654,302.5740,0,U,44387,999,36045,.1250133E-3,.243E-5,0
COSMOS 2535,2019-039A,2026-06-11T07:22:39.936288,14.91930530,.00071034,97.5761,190.6962,224.3244,135.7407,0,U,44421,999,37576,.94982339E-4,.908E-5,0
GLOBAL-4,2019-054E,2026-06-11T00:15:19.137024,15.63812095,.00064767,45.0065,272.0255,301.0337,58.9924,0,U,44499,999,37939,.47691642E-3,.45709E-3,0
ZY-1 02D,2019-059A,2026-06-11T06:48:45.369216,14.35457858,.00023255,98.3191,223.9776,116.2137,243.9289,0,U,44528,999,35349,.32677399E-4,.52E-6,0
TAURUS-1 (JINNIUZUO 1),2019-059C,2026-06-11T06:16:11.249184,14.72034125,.00077167,98.6409,326.7223,337.3357,22.7506,0,U,44530,999,35777,.79738839E-3,.4957E-4,0
ZHUHAI-1 03B,2019-060C,2026-06-11T07:45:42.056352,15.53762899,.00077733,97.5518,319.7743,341.9168,18.1807,0,U,44536,999,37541,.37804625E-3,.24194E-3,0
ZHUHAI-1 03D,2019-060E,2026-06-11T06:47:16.219968,15.49417496,.00067944,97.5379,311.9047,325.3404,34.7403,0,U,44538,999,37516,.45335653E-3,.24859E-3,0
ZHUHAI-1 03E,2019-060F,2026-06-11T08:01:29.594784,15.40875813,.00063932,97.5599,312.0802,52.7485,307.4343,0,U,44539,999,37486,.34803919E-3,.14222E-3,0
ATLAS 5 CENTAUR DEB,2018-079BG,2026-06-10T12:04:16.189824,1.77427372,.4722963,13.6155,39.8256,298.1535,22.2793,0,U,44694,999,4644,0,-.56E-6,0
GAOFEN-7,2019-072A,2026-06-11T06:43:14.269728,15.21555776,.00178372,97.2435,223.9686,60.1748,300.1259,0,U,44703,999,36674,.1467673E-3,.3254E-4,0
JILIN-1 GAOFEN 2A,2019-075A,2026-06-11T06:49:20.392320,15.39154334,.00076068,97.4967,245.9368,104.5510,255.6579,0,U,44777,999,36397,.28935671E-3,.11158E-3,0
NINGXIA-1 1,2019-076A,2026-06-11T06:24:44.388288,14.02037563,.00103157,45.0038,206.3080,134.2914,225.8768,0,U,44779,999,33702,.26145049E-4,-.9E-6,0
NINGXIA-1 5,2019-076E,2026-06-11T06:44:10.268160,14.02085755,.00098492,45.0039,205.5913,123.0465,237.1316,0,U,44783,999,33694,.3645591E-4,-.74E-6,0
KL-ALPHA A,2019-077A,2026-06-11T05:12:44.140320,13.56042659,.0013009,88.9255,223.2171,120.7732,239.4705,0,U,44785,999,32492,.96869795E-4,.8E-6,0
CARTOSAT-3,2019-081A,2026-06-11T05:30:38.512224,15.19240318,.00126788,97.4311,224.1918,168.0476,192.1062,0,U,44804,999,36256,.15870673E-3,.3282E-4,0
JILIN-1 GAOFEN 2B,2019-086A,2026-06-11T05:24:02.895264,15.20644565,.00133597,97.4886,234.2532,346.6208,13.4671,0,U,44836,999,35958,.2290848E-3,.4968E-4,0
TIANQIN 1 (CAS-6),2019-093A,2026-06-11T06:25:45.547392,14.95413420,.00127994,97.7811,246.1514,75.1929,285.0709,0,U,44879,999,35116,.26378014E-3,.2861E-4,0
ETRSS-1,2019-093B,2026-06-11T06:38:01.243392,14.95835654,.00127457,97.7823,246.6134,75.5848,284.6786,0,U,44880,999,35117,.1340636E-3,.1441E-4,0
TIANYAN 01,2019-093C,2026-06-11T06:08:25.249920,14.86509084,.00149984,97.7531,234.6325,104.3841,255.9041,0,U,44881,999,35053,.39843718E-4,.3E-5,0
TIANYAN 02,2019-093D,2026-06-11T06:28:00.054912,15.05155819,.00144388,97.7936,257.0026,48.0419,312.2035,0,U,44882,999,35172,.40905575E-3,.5779E-4,0
