{"_default": { "4": {"norad_id": "44387", "name": "METEOR M2-2", "tle1": "1 44387U 19038A   26162.27374574  .00000243  00000-0  12501-3 0  9994", "tle2": "2 44387  98.9144 149.4719 0002234  57.5654 302.5740 14.24365257360459", "object_type": "PAYLOAD", "criticality_score": 9.0, "last_updated": "2026-06-11T13:56:27.956741+00:00", "maneuver_count": 0}, "41": {"norad_id": "44339", "name": "PROX-1", "tle1": "1 44339U 19036A   26162.29999190  .00010469  00000-0  10182-2 0  9991", "tle2": "2 44339  23.9927 153.5771 0005376 327.2925  32.7241 14.90469737372592", "object_type": "PAYLOAD", "criticality_score": 9.0, "last_updated": "2026-06-11T13:56:27.956741+00:00", "maneuver_count": 0}, "102": {"norad_id": "44881", "name": "OBJECT C", "tle1": "1 44881U 19093C   26162.25584780  .00000300  00000-0  39844-4 0  9998", "tle2": "2 44881  97.7531 234.6325 0014998 104.3841 255.9041 14.86509084350533", "object_type": "PAYLOAD", "criticality_score": 9.0, "last_updated": "2026-06-11T13:56:27.956741+00:00", "maneuver_count": 0}, "131": {"norad_id": "44530", "name": "TAURUS-1", "tle1": "1 44530U 19059C   26162.26124131  .00004957  00000-0  79739-3 0  9990", "tle2": "2 44530  98.6409 326.7223 0007717 337.3357  22.7506 14.72034125357772", "object_type": "PAYLOAD", "criticality_score": 9.0, "last_updated": "2026-06-11T13:56:27.956741+00:00", "maneuver_count": 0}, "132": {"norad_id": "44350", "name": "FORMOSAT7-4/COSMIC2-4", "tle1": "1 44350U 19036M   26161.60159977  .00002272  00000-0  16932-3 0  9992", "tle2": "2 44350  23.9970 138.8959 0001462 110.3037 249.7621 14.96470956383083", "object_type": "PAYLOAD", "criticality_score": 9.0, "last_updated": "2026-06-11T13:56:27.956741+00:00", "maneuver_count": 0}, "168": {"norad_id": "44694", "name": "ATLAS 5 CENTAUR DEB", "tle1": "1 44694U 18079BG  26161.50296516 -.00000056  00000-0  00000-0 0  9994", "tle2": "2 44694  13.6155  39.8256 4722963 298.1535  22.2793  1.77427372 46442", "object_type": "DEBRIS", "criticality_score": 9.0, "last_updated": "2026-06-11T13:56:27.956741+00:00", "maneuver_count": 0}, "186": {"norad_id": "44804", "name": "CARTOSAT 3", "tle1": "1 44804U 19081A   26162.22961241  .00003282  00000-0  15871-3 0  9993", "tle2": "2 44804  97.4311 224.1918 0012679 168.0476 192.1062 15.19240318362568", "object_type": "PAYLOAD", "criticality_score": 9.0, "last_updated": "2026-06-11T13:56:27.956741+00:00", "maneuver_count": 0}, "237": {"norad_id": "44499", "name": "GLOBAL-4", "tle1": "1 44499U 19054E   26162.01063816  .00045709  00000-0  47692-3 0  9997", "tle2": "2 44499  45.0065 272.0255 0006477 301.0337  58.9924 15.63812095379394", "object_type": "PAYLOAD", "criticality_score": 9.0, "last_updated": "2026-06-11T13:56:27.956741+00:00", "maneuver_count": 0}, "240": {"norad_id": "44343", "name": "FORMOSAT7-3/COSMIC2-3", "tle1": "1 44343U 19036E   26161.83920294  .00003776  00000-0  20705-3 0  9990", "tle2": "2 44343  23.9983 222.2335 0000748 162.6468 197.4061 15.09759770382286", "object_type": "PAYLOAD", "criticality_score": 9.0, "last_updated": "2026-06-11T13:56:27.956741+00:00", "maneuver_count": 0}, "241": {"norad_id": "44349", "name": "FORMOSAT7-1/COSMIC2-1", "tle1": "1 44349U 19036L   26161.44579693  .00002374  00000-0  17804-3 0  9995", "tle2": "2 44349  23.9983  77.8387 0001015  98.3037 261.7579 14.96476311383640", "object_type": "PAYLOAD", "criticality_score": 9.0, "last_updated": "2026-06-11T13:56:27.956741+00:00", "maneuver_count": 0}, "242": {"norad_id": "44351", "name": "FORMOSAT7-2/COSMIC2-2", "tle1": "1 44351U 19036N   26161.75730551  .00002096  00000-0  15417-3 0  9993", "tle2": "2 44351  23.9969 192.1641 0001022 105.9152 254.1461 14.96473915382622", "object_type": "PAYLOAD", "criticality_score": 9.0, "last_updated": "2026-06-11T13:56:27.956741+00:00", "maneuver_count": 0}, "243": {"norad_id": "44353", "name": "FORMOSAT7-6/COSMIC2-6", "tle1": "1 44353U 19036Q   26161.89047317  .00002456  00000-0  18509-3 0  9996", "tle2": "2 44353  23.9992  12.0792 0001267  36.7502 323.3085 14.96483548380877", "object_type": "PAYLOAD", "criticality_score": 9.0, "last_updated": "2026-06-11T13:56:27.956741+00:00", "maneuver_count": 0}, "244": {"norad_id": "44358", "name": "FORMOSAT7-5/COSMIC2-5", "tle1": "1 44358U 19036V   26161.73440274  .00002508  00000-0  18954-3 0  9995", "tle2": "2 44358  23.9996 311.8841 0000712  88.5872 271.4710 14.96490578381386", "object_type": "PAYLOAD", "criticality_score": 9.0, "last_updated": "2026-06-11T13:56:27.956741+00:00", "maneuver_count": 0}, "270": {"norad_id": "44312", "name": "OBJECT C", "tle1": "1 44312U 19032C   26162.08849914  .00010975  00000-0  35205-3 0  9999", "tle2": "2 44312  44.9764  30.4979 0006593 265.9228  94.0903 15.32500292386909", "object_type": "PAYLOAD", "criticality_score": 9.0, "last_updated": "2026-06-11T13:56:27.956741+00:00", "maneuver_count": 0}, "322": {"norad_id": "44316", "name": "OBJECT G", "tle1": "1 44316U 19032G   26162.24689428  .00010278  00000-0  38985-3 0  9997", "tle2": "2 44316  44.9725  93.3600 0009545 218.5153 141.5049 15.27071297386170", "object_type": "PAYLOAD", "criticality_score": 9.0, "last_updated": "2026-06-11T13:56:27.956741+00:00", "maneuver_count": 0}, "341": {"norad_id": "44882", "name": "OBJECT D", "tle1": "1 44882U 19093D   26162.26944508  .00005779  00000-0  40906-3 0  9993", "tle2": "2 44882  97.7936 257.0026 0014439  48.0419 312.2035 15.05155819351722", "object_type": "PAYLOAD", "criticality_score": 9.0, "last_updated": "2026-06-11T13:56:27.956741+00:00", "maneuver_count": 0}, "410": {"norad_id": "44703", "name": "GAOFEN 7", "tle1": "1 44703U 19072A   26162.28002627  .00003254  00000-0  14677-3 0  9993", "tle2": "2 44703  97.2435 223.9686 0017837  60.1748 300.1259 15.21555776366748", "object_type": "PAYLOAD", "criticality_score": 9.0, "last_updated": "2026-06-11T13:56:27.956741+00:00", "maneuver_count": 0}, "412": {"norad_id": "44779", "name": "NINGXIA-1 1", "tle1": "1 44779U 19076A   26162.26718042 -.00000090  00000-0  26145-4 0  9993", "tle2": "2 44779  45.0038 206.3080 0010316 134.2914 225.8768 14.02037563337021", "object_type": "PAYLOAD", "criticality_score": 9.0, "last_updated": "2026-06-11T13:56:27.956741+00:00", "maneuver_count": 0}, "435": {"norad_id": "44785", "name": "KL-ALPHA A", "tle1": "1 44785U 19077A   26162.21717755  .00000080  00000-0  96870-4 0  9996", "tle2": "2 44785  88.9255 223.2171 0013009 120.7732 239.4705 13.56042659324921", "object_type": "PAYLOAD", "criticality_score": 9.0, "last_updated": "2026-06-11T13:56:27.956741+00:00", "maneuver_count": 0}, "485": {"norad_id": "44879", "name": "OBJECT A", "tle1": "1 44879U 19093A   26162.26788828  .00002861  00000-0  26378-3 0  9996", "tle2": "2 44879  97.7811 246.1514 0012799  75.1929 285.0709 14.95413420351161", "object_type": "PAYLOAD", "criticality_score": 9.0, "last_updated": "2026-06-11T13:56:27.956741+00:00", "maneuver_count": 0}, "488": {"norad_id": "44880", "name": "OBJECT B", "tle1": "1 44880U 19093B   26162.27640328  .00001441  00000-0  13406-3 0  9992", "tle2": "2 44880  97.7823 246.6134 0012746  75.5848 284.6786 14.95835654351173", "object_type": "PAYLOAD", "criticality_score": 9.0, "last_updated": "2026-06-11T13:56:27.956741+00:00", "maneuver_count": 0}, "500": {"norad_id": "44538", "name": "ZHUHAI-1 03D", "tle1": "1 44538U 19060E   26162.28282662  .00024859  00000-0  45336-3 0  9995", "tle2": "2 44538  97.5379 311.9047 0006794 325.3404  34.7403 15.49417496375161", "object_type": "PAYLOAD", "criticality_score": 9.0, "last_updated": "2026-06-11T13:56:27.956741+00:00", "maneuver_count": 0}, "504": {"norad_id": "44836", "name": "JILIN-01 GAOFEN 2B", "tle1": "1 44836U 19086A   26162.22503351  .00004968  00000-0  22908-3 0  9998", "tle2": "2 44836  97.4886 234.2532 0013360 346.6208  13.4671 15.20644565359582", "object_type": "PAYLOAD", "criticality_score": 9.0, "last_updated": "2026-06-11T13:56:27.956741+00:00", "maneuver_count": 0}, "505": {"norad_id": "44777", "name": "JILIN-01 GAOFEN 2A", "tle1": "1 44777U 19075A   26162.28426380  .00011158  00000-0  28936-3 0  9998", "tle2": "2 44777  97.4967 245.9368 0007607 104.5510 255.6579 15.39154334363971", "object_type": "PAYLOAD", "criticality_score": 9.0, "last_updated": "2026-06-11T13:56:27.956741+00:00", "maneuver_count": 0}, "511": {"norad_id": "44528", "name": "ZY-1 02D", "tle1": "1 44528U 19059A   26162.28385844  .00000052  00000-0  32677-4 0  9992", "tle2": "2 44528  98.3191 223.9776 0002326 116.2137 243.9289 14.35457858353497", "object_type": "PAYLOAD", "criticality_score": 9.0, "last_updated": "2026-06-11T13:56:27.956741+00:00", "maneuver_count": 0}, "528": {"norad_id": "44536", "name": "ZHUHAI-1 03B", "tle1": "1 44536U 19060C   26162.32340343  .00024194  00000-0  37805-3 0  9993", "tle2": "2 44536  97.5518 319.7743 0007773 341.9168  18.1807 15.53762899375419", "object_type": "PAYLOAD", "criticality_score": 9.0, "last_updated": "2026-06-11T13:56:27.956741+00:00", "maneuver_count": 0}, "570": {"norad_id": "44421", "name": "COSMOS 2535", "tle1": "1 44421U 19039A   26162.30740667  .00000908  00000-0  94982-4 0  9990", "tle2": "2 44421  97.5761 190.6962 0007103 224.3244 135.7407 14.91930530375767", "object_type": "PAYLOAD", "criticality_score": 9.0, "last_updated": "2026-06-11T13:56:27.956741+00:00", "maneuver_count": 0}, "624": {"norad_id": "44539", "name": "ZHUHAI-1 03E", "tle1": "1 44539U 19060F   26162.33437031  .00014222  00000-0  34804-3 0  9995", "tle2": "2 44539  97.5599 312.0802 0006393  52.7485 307.4343 15.40875813374863", "object_type": "PAYLOAD", "criticality_score": 9.0, "last_updated": "2026-06-11T13:56:27.956741+00:00", "maneuver_count": 0}, "630": {"norad_id": "44783", "name": "NINGXIA-1 5", "tle1": "1 44783U 19076E   26162.28067440 -.00000074  00000-0  36456-4 0  9997", "tle2": "2 44783  45.0039 205.5913 0009849 123.0465 237.1316 14.02085755336940", "object_type": "PAYLOAD", "criticality_score": 9.0, "last_updated": "2026-06-11T13:56:27.956741+00:00", "maneuver_count": 0}, "648": {"norad_id": "44340", "name": "NPSAT1", "tle1": "1 44340U 19036B   26161.95918530  .00004571  00000-0  63554-3 0  9993", "tle2": "2 44340  23.9994 258.3232 0007782 135.8627 224.2491 14.74527015371577", "object_type": "PAYLOAD", "criticality_score": 9.0, "last_updated": "2026-06-11T13:56:27.956741+00:00", "maneuver_count": 0}}}